KUIPER-00214            
1 67778U 26030Q   26069.72048821  .00027437  00000+0  75794-3 0  9998
2 67778  51.8844 213.9922 0000647 343.0368  17.0597 15.36848242  5253
KUIPER-00215            
1 67779U 26030R   26069.62886403  .00024584  00000+0  73149-3 0  9996
2 67779  51.8837 214.8688 0010437  62.9041 297.3008 15.34536060  5236
KUIPER-00218            
1 67780U 26030S   26069.81213916  .00051328  00000+0  14758-2 0  9998
2 67780  51.8833 213.8487 0006788  50.1659 309.9924 15.35279754  5263
KUIPER-00220            
1 67781U 26030T   26069.81972043  .00055631  00000+0  16178-2 0  9991
2 67781  51.8805 213.8893 0008563  59.7226 300.4606 15.34872831  5269
KUIPER-00222            
1 67782U 26030U   26070.11131407  .00034979  00000+0  11085-2 0  9992
2 67782  51.8816 212.8275 0017595  72.3046 287.9857 15.32249485  5304
KUIPER-00223            
1 67783U 26030V   26069.76361829  .00039040  00000+0  11644-2 0  9990
2 67783  51.8826 214.2670 0012726  62.6949 297.5331 15.34193480  5259
KUIPER-00225            
1 67784U 26030W   26069.86569235  .00042391  00000+0  11942-2 0  9997
2 67784  51.8817 213.4537 0004537  38.3599 321.7709 15.36015481  5272
KUIPER-00226            
1 67785U 26030X   26069.86685874  .00044220  00000+0  14699-2 0  9991
2 67785  51.8815 214.1890 0019411  75.8470 284.4669 15.30572480  5262
KUIPER-00259            
1 67786U 26030Y   26069.87963794  .00039110  00000+0  11325-2 0  9998
2 67786  51.8803 213.5419 0008642  49.9901 310.1842 15.35166614  5279
KUIPER-00260            
1 67787U 26030Z   26069.40070858  .00046926  00000+0  12966-2 0  9993
2 67787  51.8799 215.5869 0001635  59.1311 300.9837 15.36580289  5111
KUIPER-00262            
1 67788U 26030AA  26069.85169713  .00041745  00000+0  11478-2 0  9993
2 67788  51.8820 213.3645 0000578  32.1375 327.9647 15.36787819  5274
KUIPER-00266            
1 67789U 26030AB  26069.80621799  .00039799  00000+0  13180-2 0  9994
2 67789  51.8807 214.5283 0023081  78.8479 281.5098 15.30667289  5252
