CCSDS_OMM_VERS = 2.0
CREATION_DATE  = 
ORIGINATOR     = 

OBJECT_NAME    = KUIPER-00214
OBJECT_ID      = 2026-030Q
CENTER_NAME    = EARTH
REF_FRAME      = TEME
TIME_SYSTEM    = UTC
MEAN_ELEMENT_THEORY = SGP/SGP4

EPOCH          = 2026-03-10T17:17:30.181344
MEAN_MOTION    = 15.36848242
ECCENTRICITY   = .00006473
INCLINATION    = 51.8844
RA_OF_ASC_NODE = 213.9922
ARG_OF_PERICENTER = 343.0368
MEAN_ANOMALY   = 17.0597

EPHEMERIS_TYPE = 0
CLASSIFICATION_TYPE = U
NORAD_CAT_ID   = 67778
ELEMENT_SET_NO = 999
REV_AT_EPOCH   = 525
BSTAR          = .7579415E-3
MEAN_MOTION_DOT = .27437E-3
MEAN_MOTION_DDOT = 0

CCSDS_OMM_VERS = 2.0
CREATION_DATE  = 
ORIGINATOR     = 

OBJECT_NAME    = KUIPER-00215
OBJECT_ID      = 2026-030R
CENTER_NAME    = EARTH
REF_FRAME      = TEME
TIME_SYSTEM    = UTC
MEAN_ELEMENT_THEORY = SGP/SGP4

EPOCH          = 2026-03-10T15:05:33.852192
MEAN_MOTION    = 15.34536060
ECCENTRICITY   = .00104372
INCLINATION    = 51.8837
RA_OF_ASC_NODE = 214.8688
ARG_OF_PERICENTER = 62.9041
MEAN_ANOMALY   = 297.3008

EPHEMERIS_TYPE = 0
CLASSIFICATION_TYPE = U
NORAD_CAT_ID   = 67779
ELEMENT_SET_NO = 999
REV_AT_EPOCH   = 523
BSTAR          = .73149274E-3
MEAN_MOTION_DOT = .24584E-3
MEAN_MOTION_DDOT = 0

CCSDS_OMM_VERS = 2.0
CREATION_DATE  = 
ORIGINATOR     = 

OBJECT_NAME    = KUIPER-00218
OBJECT_ID      = 2026-030S
CENTER_NAME    = EARTH
REF_FRAME      = TEME
TIME_SYSTEM    = UTC
MEAN_ELEMENT_THEORY = SGP/SGP4

EPOCH          = 2026-03-10T19:29:28.823424
MEAN_MOTION    = 15.35279754
ECCENTRICITY   = .00067887
INCLINATION    = 51.8833
RA_OF_ASC_NODE = 213.8487
ARG_OF_PERICENTER = 50.1659
MEAN_ANOMALY   = 309.9924

EPHEMERIS_TYPE = 0
CLASSIFICATION_TYPE = U
NORAD_CAT_ID   = 67780
ELEMENT_SET_NO = 999
REV_AT_EPOCH   = 526
BSTAR          = .147577E-2
MEAN_MOTION_DOT = .51328E-3
MEAN_MOTION_DDOT = 0

CCSDS_OMM_VERS = 2.0
CREATION_DATE  = 
ORIGINATOR     = 

OBJECT_NAME    = KUIPER-00220
OBJECT_ID      = 2026-030T
CENTER_NAME    = EARTH
REF_FRAME      = TEME
TIME_SYSTEM    = UTC
MEAN_ELEMENT_THEORY = SGP/SGP4

EPOCH          = 2026-03-10T19:40:23.845152
MEAN_MOTION    = 15.34872831
ECCENTRICITY   = .0008563
INCLINATION    = 51.8805
RA_OF_ASC_NODE = 213.8893
ARG_OF_PERICENTER = 59.7226
MEAN_ANOMALY   = 300.4606

EPHEMERIS_TYPE = 0
CLASSIFICATION_TYPE = U
NORAD_CAT_ID   = 67781
ELEMENT_SET_NO = 999
REV_AT_EPOCH   = 526
BSTAR          = .16178416E-2
MEAN_MOTION_DOT = .55631E-3
MEAN_MOTION_DDOT = 0

CCSDS_OMM_VERS = 2.0
CREATION_DATE  = 
ORIGINATOR     = 

OBJECT_NAME    = KUIPER-00222
OBJECT_ID      = 2026-030U
CENTER_NAME    = EARTH
REF_FRAME      = TEME
TIME_SYSTEM    = UTC
MEAN_ELEMENT_THEORY = SGP/SGP4

EPOCH          = 2026-03-11T02:40:17.535648
MEAN_MOTION    = 15.32249485
ECCENTRICITY   = .0017595
INCLINATION    = 51.8816
RA_OF_ASC_NODE = 212.8275
ARG_OF_PERICENTER = 72.3046
MEAN_ANOMALY   = 287.9857

EPHEMERIS_TYPE = 0
CLASSIFICATION_TYPE = U
NORAD_CAT_ID   = 67782
ELEMENT_SET_NO = 999
REV_AT_EPOCH   = 530
BSTAR          = .11085E-2
MEAN_MOTION_DOT = .34979E-3
MEAN_MOTION_DDOT = 0

CCSDS_OMM_VERS = 2.0
CREATION_DATE  = 
ORIGINATOR     = 

OBJECT_NAME    = KUIPER-00223
OBJECT_ID      = 2026-030V
CENTER_NAME    = EARTH
REF_FRAME      = TEME
TIME_SYSTEM    = UTC
MEAN_ELEMENT_THEORY = SGP/SGP4

EPOCH          = 2026-03-10T18:19:36.620256
MEAN_MOTION    = 15.34193480
ECCENTRICITY   = .00127269
INCLINATION    = 51.8826
RA_OF_ASC_NODE = 214.2670
ARG_OF_PERICENTER = 62.6949
MEAN_ANOMALY   = 297.5331

EPHEMERIS_TYPE = 0
CLASSIFICATION_TYPE = U
NORAD_CAT_ID   = 67783
ELEMENT_SET_NO = 999
REV_AT_EPOCH   = 525
BSTAR          = .11644442E-2
MEAN_MOTION_DOT = .3904E-3
MEAN_MOTION_DDOT = 0

CCSDS_OMM_VERS = 2.0
CREATION_DATE  = 
ORIGINATOR     = 

OBJECT_NAME    = KUIPER-00225
OBJECT_ID      = 2026-030W
CENTER_NAME    = EARTH
REF_FRAME      = TEME
TIME_SYSTEM    = UTC
MEAN_ELEMENT_THEORY = SGP/SGP4

EPOCH          = 2026-03-10T20:46:35.819040
MEAN_MOTION    = 15.36015481
ECCENTRICITY   = .0004537
INCLINATION    = 51.8817
RA_OF_ASC_NODE = 213.4537
ARG_OF_PERICENTER = 38.3599
MEAN_ANOMALY   = 321.7709

EPHEMERIS_TYPE = 0
CLASSIFICATION_TYPE = U
NORAD_CAT_ID   = 67784
ELEMENT_SET_NO = 999
REV_AT_EPOCH   = 527
BSTAR          = .11942E-2
MEAN_MOTION_DOT = .42391E-3
MEAN_MOTION_DDOT = 0

CCSDS_OMM_VERS = 2.0
CREATION_DATE  = 
ORIGINATOR     = 

OBJECT_NAME    = KUIPER-00226
OBJECT_ID      = 2026-030X
CENTER_NAME    = EARTH
REF_FRAME      = TEME
TIME_SYSTEM    = UTC
MEAN_ELEMENT_THEORY = SGP/SGP4

EPOCH          = 2026-03-10T20:48:16.595136
MEAN_MOTION    = 15.30572480
ECCENTRICITY   = .0019411
INCLINATION    = 51.8815
RA_OF_ASC_NODE = 214.1890
ARG_OF_PERICENTER = 75.8470
MEAN_ANOMALY   = 284.4669

EPHEMERIS_TYPE = 0
CLASSIFICATION_TYPE = U
NORAD_CAT_ID   = 67785
ELEMENT_SET_NO = 999
REV_AT_EPOCH   = 526
BSTAR          = .14699E-2
MEAN_MOTION_DOT = .4422E-3
MEAN_MOTION_DDOT = 0

CCSDS_OMM_VERS = 2.0
CREATION_DATE  = 
ORIGINATOR     = 

OBJECT_NAME    = KUIPER-00259
OBJECT_ID      = 2026-030Y
CENTER_NAME    = EARTH
REF_FRAME      = TEME
TIME_SYSTEM    = UTC
MEAN_ELEMENT_THEORY = SGP/SGP4

EPOCH          = 2026-03-10T21:06:40.718016
MEAN_MOTION    = 15.35166614
ECCENTRICITY   = .0008642
INCLINATION    = 51.8803
RA_OF_ASC_NODE = 213.5419
ARG_OF_PERICENTER = 49.9901
MEAN_ANOMALY   = 310.1842

EPHEMERIS_TYPE = 0
CLASSIFICATION_TYPE = U
NORAD_CAT_ID   = 67786
ELEMENT_SET_NO = 999
REV_AT_EPOCH   = 527
BSTAR          = .11325E-2
MEAN_MOTION_DOT = .3911E-3
MEAN_MOTION_DDOT = 0

CCSDS_OMM_VERS = 2.0
CREATION_DATE  = 
ORIGINATOR     = 

OBJECT_NAME    = KUIPER-00260
OBJECT_ID      = 2026-030Z
CENTER_NAME    = EARTH
REF_FRAME      = TEME
TIME_SYSTEM    = UTC
MEAN_ELEMENT_THEORY = SGP/SGP4

EPOCH          = 2026-03-10T09:37:01.221312
MEAN_MOTION    = 15.36580289
ECCENTRICITY   = .00016354
INCLINATION    = 51.8799
RA_OF_ASC_NODE = 215.5869
ARG_OF_PERICENTER = 59.1311
MEAN_ANOMALY   = 300.9837

EPHEMERIS_TYPE = 0
CLASSIFICATION_TYPE = U
NORAD_CAT_ID   = 67787
ELEMENT_SET_NO = 999
REV_AT_EPOCH   = 511
BSTAR          = .12966022E-2
MEAN_MOTION_DOT = .46926E-3
MEAN_MOTION_DDOT = 0

CCSDS_OMM_VERS = 2.0
CREATION_DATE  = 
ORIGINATOR     = 

OBJECT_NAME    = KUIPER-00262
OBJECT_ID      = 2026-030AA
CENTER_NAME    = EARTH
REF_FRAME      = TEME
TIME_SYSTEM    = UTC
MEAN_ELEMENT_THEORY = SGP/SGP4

EPOCH          = 2026-03-10T20:26:26.632032
MEAN_MOTION    = 15.36787819
ECCENTRICITY   = .0000578
INCLINATION    = 51.8820
RA_OF_ASC_NODE = 213.3645
ARG_OF_PERICENTER = 32.1375
MEAN_ANOMALY   = 327.9647

EPHEMERIS_TYPE = 0
CLASSIFICATION_TYPE = U
NORAD_CAT_ID   = 67788
ELEMENT_SET_NO = 999
REV_AT_EPOCH   = 527
BSTAR          = .11478E-2
MEAN_MOTION_DOT = .41745E-3
MEAN_MOTION_DDOT = 0

CCSDS_OMM_VERS = 2.0
CREATION_DATE  = 
ORIGINATOR     = 

OBJECT_NAME    = KUIPER-00266
OBJECT_ID      = 2026-030AB
CENTER_NAME    = EARTH
REF_FRAME      = TEME
TIME_SYSTEM    = UTC
MEAN_ELEMENT_THEORY = SGP/SGP4

EPOCH          = 2026-03-10T19:20:57.234336
MEAN_MOTION    = 15.30667289
ECCENTRICITY   = .00230815
INCLINATION    = 51.8807
RA_OF_ASC_NODE = 214.5283
ARG_OF_PERICENTER = 78.8479
MEAN_ANOMALY   = 281.5098

EPHEMERIS_TYPE = 0
CLASSIFICATION_TYPE = U
NORAD_CAT_ID   = 67789
ELEMENT_SET_NO = 999
REV_AT_EPOCH   = 525
BSTAR          = .13179786E-2
MEAN_MOTION_DOT = .39799E-3
MEAN_MOTION_DDOT = 0

